{
  "type": "FeatureCollection",
  "features": [
    {
      "type": "Feature",
      "properties": {
        "norad_id": 39766,
        "name": "ALOS-2",
        "group": "resource",
        "lat": 65.77104438364313,
        "lon": 63.31054524676544,
        "alt_km": 623.7510145645447,
        "timestamp": "2025-12-12T11:38:31.073283+00:00",
        "meta_object_name": "ALOS-2",
        "meta_object_id": "2014-029A",
        "meta_epoch": "2025-12-12T04:50:50.551872",
        "meta_mean_motion": 14.79471728,
        "meta_eccentricity": 0.0001383,
        "meta_inclination": 97.9218,
        "meta_ra_of_asc_node": 81.0553,
        "meta_arg_of_pericenter": 100.0685,
        "meta_mean_anomaly": 260.0683,
        "meta_ephemeris_type": 0,
        "meta_classification_type": "U",
        "meta_norad_cat_id": 39766,
        "meta_element_set_no": 999,
        "meta_rev_at_epoch": 62393,
        "meta_bstar": 0.0006594,
        "meta_mean_motion_dot": 4.876e-05,
        "meta_mean_motion_ddot": 0,
        "tle_line1": "1 39766U 14029A   25346.20197398  .00004876  00000+0  65940-3 0  9997",
        "tle_line2": "2 39766  97.9218  81.0553 0001383 100.0685 260.0683 14.79471728623934"
      },
      "geometry": {
        "type": "Point",
        "coordinates": [
          63.31054524676544,
          65.77104438364313
        ]
      }
    },
    {
      "type": "Feature",
      "properties": {
        "norad_id": 40010,
        "name": "KAZEOSAT 2",
        "group": "resource",
        "lat": -27.75575796625868,
        "lon": -165.18466322555,
        "alt_km": 621.8854272305098,
        "timestamp": "2025-12-12T11:38:31.073293+00:00",
        "meta_object_name": "KAZEOSAT 2",
        "meta_object_id": "2014-033A",
        "meta_epoch": "2025-12-12T03:40:59.206656",
        "meta_mean_motion": 14.85167987,
        "meta_eccentricity": 0.000757,
        "meta_inclination": 97.5506,
        "meta_ra_of_asc_node": 190.4983,
        "meta_arg_of_pericenter": 208.7826,
        "meta_mean_anomaly": 151.2973,
        "meta_ephemeris_type": 0,
        "meta_classification_type": "U",
        "meta_norad_cat_id": 40010,
        "meta_element_set_no": 999,
        "meta_rev_at_epoch": 62119,
        "meta_bstar": 0.00017387,
        "meta_mean_motion_dot": 1.439e-05,
        "meta_mean_motion_ddot": 0,
        "tle_line1": "1 40010U 14033A   25346.15346304  .00001439  00000+0  17387-3 0  9997",
        "tle_line2": "2 40010  97.5506 190.4983 0007570 208.7826 151.2973 14.85167987621198"
      },
      "geometry": {
        "type": "Point",
        "coordinates": [
          -165.18466322555,
          -27.75575796625868
        ]
      }
    },
    {
      "type": "Feature",
      "properties": {
        "norad_id": 40011,
        "name": "HODOYOSHI-4",
        "group": "resource",
        "lat": 56.662848317353486,
        "lon": 163.76254561176802,
        "alt_km": 613.5518304105308,
        "timestamp": "2025-12-12T11:38:31.073304+00:00",
        "meta_object_name": "HODOYOSHI-4",
        "meta_object_id": "2014-033B",
        "meta_epoch": "2025-12-12T03:18:40.222656",
        "meta_mean_motion": 14.87475883,
        "meta_eccentricity": 0.002324,
        "meta_inclination": 97.5416,
        "meta_ra_of_asc_node": 175.0514,
        "meta_arg_of_pericenter": 202.7372,
        "meta_mean_anomaly": 157.2818,
        "meta_ephemeris_type": 0,
        "meta_classification_type": "U",
        "meta_norad_cat_id": 40011,
        "meta_element_set_no": 999,
        "meta_rev_at_epoch": 62099,
        "meta_bstar": 0.00025172,
        "meta_mean_motion_dot": 2.239e-05,
        "meta_mean_motion_ddot": 0,
        "tle_line1": "1 40011U 14033B   25346.13796554  .00002239  00000+0  25172-3 0  9992",
        "tle_line2": "2 40011  97.5416 175.0514 0023240 202.7372 157.2818 14.87475883620990"
      },
      "geometry": {
        "type": "Point",
        "coordinates": [
          163.76254561176802,
          56.662848317353486
        ]
      }
    },
    {
      "type": "Feature",
      "properties": {
        "norad_id": 40013,
        "name": "DEIMOS-2",
        "group": "resource",
        "lat": -29.693314118011287,
        "lon": 37.92348087411205,
        "alt_km": 594.9030995031126,
        "timestamp": "2025-12-12T11:38:31.073315+00:00",
        "meta_object_name": "DEIMOS-2",
        "meta_object_id": "2014-033D",
        "meta_epoch": "2025-12-12T04:16:14.573280",
        "meta_mean_motion": 14.92968364,
        "meta_eccentricity": 8.28e-05,
        "meta_inclination": 97.6059,
        "meta_ra_of_asc_node": 221.9966,
        "meta_arg_of_pericenter": 96.0329,
        "meta_mean_anomaly": 264.0986,
        "meta_ephemeris_type": 0,
        "meta_classification_type": "U",
        "meta_norad_cat_id": 40013,
        "meta_element_set_no": 999,
        "meta_rev_at_epoch": 60981,
        "meta_bstar": 0.0002916,
        "meta_mean_motion_dot": 2.974e-05,
        "meta_mean_motion_ddot": 0,
        "tle_line1": "1 40013U 14033D   25346.17794645  .00002974  00000+0  29160-3 0  9994",
        "tle_line2": "2 40013  97.6059 221.9966 0000828  96.0329 264.0986 14.92968364609819"
      },
      "geometry": {
        "type": "Point",
        "coordinates": [
          37.92348087411205,
          -29.693314118011287
        ]
      }
    },
    {
      "type": "Feature",
      "properties": {
        "norad_id": 40015,
        "name": "HODOYOSHI-3",
        "group": "resource",
        "lat": -14.141065415160094,
        "lon": 154.26385583598068,
        "alt_km": 621.5156921615244,
        "timestamp": "2025-12-12T11:38:31.073325+00:00",
        "meta_object_name": "HODOYOSHI-3",
        "meta_object_id": "2014-033F",
        "meta_epoch": "2025-12-12T00:23:04.432128",
        "meta_mean_motion": 14.84802941,
        "meta_eccentricity": 0.0031888,
        "meta_inclination": 97.6199,
        "meta_ra_of_asc_node": 151.8825,
        "meta_arg_of_pericenter": 250.4066,
        "meta_mean_anomaly": 109.3706,
        "meta_ephemeris_type": 0,
        "meta_classification_type": "U",
        "meta_norad_cat_id": 40015,
        "meta_element_set_no": 999,
        "meta_rev_at_epoch": 61984,
        "meta_bstar": 0.00033502,
        "meta_mean_motion_dot": 2.817e-05,
        "meta_mean_motion_ddot": 0,
        "tle_line1": "1 40015U 14033F   25346.01602352  .00002817  00000+0  33502-3 0  9993",
        "tle_line2": "2 40015  97.6199 151.8825 0031888 250.4066 109.3706 14.84802941619849"
      },
      "geometry": {
        "type": "Point",
        "coordinates": [
          154.26385583598068,
          -14.141065415160094
        ]
      }
    },
    {
      "type": "Feature",
      "properties": {
        "norad_id": 40053,
        "name": "SPOT 7",
        "group": "resource",
        "lat": 81.9002256883722,
        "lon": -43.290080284993195,
        "alt_km": 682.2466024808573,
        "timestamp": "2025-12-12T11:38:31.073335+00:00",
        "meta_object_name": "SPOT 7",
        "meta_object_id": "2014-034A",
        "meta_epoch": "2025-12-12T04:39:16.034112",
        "meta_mean_motion": 14.6073333,
        "meta_eccentricity": 0.0001547,
        "meta_inclination": 98.0903,
        "meta_ra_of_asc_node": 48.2815,
        "meta_arg_of_pericenter": 88.2328,
        "meta_mean_anomaly": 271.905,
        "meta_ephemeris_type": 0,
        "meta_classification_type": "U",
        "meta_norad_cat_id": 40053,
        "meta_element_set_no": 999,
        "meta_rev_at_epoch": 60983,
        "meta_bstar": 0.00022927,
        "meta_mean_motion_dot": 1.072e-05,
        "meta_mean_motion_ddot": 0,
        "tle_line1": "1 40053U 14034A   25346.19393558  .00001072  00000+0  22927-3 0  9991",
        "tle_line2": "2 40053  98.0903  48.2815 0001547  88.2328 271.9050 14.60733330609839"
      },
      "geometry": {
        "type": "Point",
        "coordinates": [
          -43.290080284993195,
          81.9002256883722
        ]
      }
    },
    {
      "type": "Feature",
      "properties": {
        "norad_id": 40072,
        "name": "SKYSAT-B",
        "group": "resource",
        "lat": 0.7250183757784039,
        "lon": -69.92900811114755,
        "alt_km": 612.8814908332524,
        "timestamp": "2025-12-12T11:38:31.073345+00:00",
        "meta_object_name": "SKYSAT-B",
        "meta_object_id": "2014-037D",
        "meta_epoch": "2025-12-11T17:52:40.490976",
        "meta_mean_motion": 14.87321925,
        "meta_eccentricity": 0.00060726,
        "meta_inclination": 98.3607,
        "meta_ra_of_asc_node": 289.3985,
        "meta_arg_of_pericenter": 153.0618,
        "meta_mean_anomaly": 207.0912,
        "meta_ephemeris_type": 0,
        "meta_classification_type": "U",
        "meta_norad_cat_id": 40072,
        "meta_element_set_no": 999,
        "meta_rev_at_epoch": 61809,
        "meta_bstar": 0.00033654656,
        "meta_mean_motion_dot": 2.978e-05,
        "meta_mean_motion_ddot": 0,
        "tle_line1": "1 40072U 14037D   25345.74491309  .00002978  00000+0  33655-3 0  9994",
        "tle_line2": "2 40072  98.3607 289.3985 0006072 153.0618 207.0912 14.87321925618098"
      },
      "geometry": {
        "type": "Point",
        "coordinates": [
          -69.92900811114755,
          0.7250183757784039
        ]
      }
    }
  ]
}